NORAD_CAT_ID,OBJECT_NAME,OBJECT_TYPE,EPOCH,MEAN_MOTION,ECCENTRICITY,INCLINATION,RA_OF_ASC_NODE,ARG_OF_PERICENTER,MEAN_ANOMALY,BSTAR,MEAN_MOTION_DOT,MEAN_MOTION_DDOT,TLE_LINE0,TLE_LINE1,TLE_LINE2,SEMIMAJOR_AXIS,PERIOD,APOGEE,PERIGEE,DECAYED
53132.0,STARLINK-4063,PAYLOAD,2022-12-03 09:53:38,15.08843939,0.0002619,53.2172,126.4745,50.7158,309.4066,7.4387e-05,8.96e-06,0.0,0 STARLINK-4063,1 53132U 22083A   22337.41224917  .00000896  00000-0  74387-4 0  9992,2 53132  53.2172 126.4745 0002619  50.7158 309.4066 15.08843939 21853,6917.868,95.437,541.545,537.922,0.0
53132.0,STARLINK-4063,PAYLOAD,2022-12-03 16:15:10,15.08847871,0.0002527,53.217,125.2845,51.7803,308.3416,9.091e-05,1.159e-05,0.0,0 STARLINK-4063,1 53132U 22083A   22337.67720498  .00001159  00000-0  90910-4 0  9998,2 53132  53.2170 125.2845 0002527  51.7803 308.3416 15.08847871 21266,6917.856,95.437,541.469,537.9730000000002,0.0
53132.0,STARLINK-4063,PAYLOAD,2022-12-04 03:22:52,15.08851524,0.0002444,53.2174,123.2035,52.6491,307.4723,0.00011463,1.537e-05,0.0,0 STARLINK-4063,1 53132U 22083A   22338.14088034  .00001537  00000-0  11463-3 0  9999,2 53132  53.2174 123.2035 0002444  52.6491 307.4723 15.08851524 21968,6917.845,95.437,541.401,538.019,0.0
53132.0,STARLINK-4063,PAYLOAD,2022-12-04 09:44:25,15.0884294,0.0002466,53.2178,122.0141,54.0112,306.1108,0.00013715,1.895e-05,0.0,0 STARLINK-4063,1 53132U 22083A   22338.40584626  .00001895  00000-0  13715-3 0  9995,2 53132  53.2178 122.0141 0002466  54.0112 306.1108 15.08842940 22008,6917.871,95.437,541.442,538.03,0.0
53132.0,STARLINK-4063,PAYLOAD,2022-12-04 12:55:11,15.08840865,0.0002427,53.2172,121.4191,54.1091,306.0126,0.00010279,1.348e-05,0.0,0 STARLINK-4063,1 53132U 22083A   22338.53832801  .00001348  00000-0  10279-3 0  9995,2 53132  53.2172 121.4191 0002427  54.1091 306.0126 15.08840865 21398,6917.878000000002,95.437,541.422,538.064,0.0
53132.0,STARLINK-4063,PAYLOAD,2022-12-04 16:05:58,15.08838286,0.0002514,53.2178,120.8255,51.4014,308.7203,8.641700000000001e-05,1.087e-05,0.0,0 STARLINK-4063,1 53132U 22083A   22338.67081019  .00001087  00000-0  86417-4 0  9995,2 53132  53.2178 120.8255 0002514  51.4014 308.7203 15.08838286 21412,6917.886,95.438,541.49,538.011,0.0
53132.0,STARLINK-4063,PAYLOAD,2022-12-05 03:13:39,15.08849924,0.0002561,53.2174,118.7438,52.4449,307.6775,0.00010847,1.439e-05,0.0,0 STARLINK-4063,1 53132U 22083A   22339.13448262  .00001439  00000-0  10847-3 0  9998,2 53132  53.2174 118.7438 0002561  52.4449 307.6775 15.08849924 21482,6917.85,95.437,541.487,537.943,0.0
53132.0,STARLINK-4063,PAYLOAD,2022-12-05 15:56:44,15.08846559,0.0002559,53.2176,116.3653,51.9685,308.1537,6.337e-05,7.200000000000001e-06,0.0,0 STARLINK-4063,1 53132U 22083A   22339.66440302  .00000720  00000-0  63370-4 0  9995,2 53132  53.2176 116.3653 0002559  51.9685 308.1537 15.08846559 22192,6917.86,95.437,541.496,537.955,0.0
53132.0,STARLINK-4063,PAYLOAD,2022-12-05 19:07:30,15.0884563,0.0002506,53.2181,115.7708,49.2785,310.8425,4.1946e-05,3.79e-06,0.0,0 STARLINK-4063,1 53132U 22083A   22339.79688339  .00000379  00000-0  41946-4 0  9998,2 53132  53.2181 115.7708 0002506  49.2785 310.8425 15.08845630 21582,6917.863,95.437,541.462,537.995,0.0
53132.0,STARLINK-4063,PAYLOAD,2022-12-06 09:25:58,15.08844326,0.0002503,53.2179,113.0946,49.9305,310.1906,0.00012411,1.688e-05,0.0,0 STARLINK-4063,1 53132U 22083A   22340.39304014  .00001688  00000-0  12411-3 0  9999,2 53132  53.2179 113.0946 0002503  49.9305 310.1906 15.08844326 21674,6917.8669999999975,95.437,541.464,538.001,0.0
53132.0,STARLINK-4063,PAYLOAD,2022-12-06 15:47:31,15.08839516,0.0002457,53.2181,111.9045,51.9259,308.1955,5.4242e-05,5.75e-06,0.0,0 STARLINK-4063,1 53132U 22083A   22340.65800454  .00000575  00000-0  54242-4 0  9990,2 53132  53.2181 111.9045 0002457  51.9259 308.1955 15.08839516 22344,6917.882,95.438,541.447,538.047,0.0
53132.0,STARLINK-4063,PAYLOAD,2022-12-06 18:58:18,15.08834282,0.0002358,53.2184,111.3112,44.7468,315.3715,-3.043e-06,-3.37e-06,0.0,0 STARLINK-4063,1 53132U 22083A   22340.79048894 -.00000337  00000-0 -30430-5 0  9999,2 53132  53.2184 111.3112 0002358  44.7468 315.3715 15.08834282 21739,6917.898,95.438,541.394,538.132,0.0
53132.0,STARLINK-4063,PAYLOAD,2022-12-07 09:16:46,15.08833332,0.0002397,53.219,108.6349,44.455,315.6634,-8.397399999999999e-05,-1.624e-05,0.0,0 STARLINK-4063,1 53132U 22083A   22341.38665355 -.00001624  00000-0 -83974-4 0  9992,2 53132  53.2190 108.6349 0002397  44.4550 315.6634 15.08833332 22457,6917.901,95.438,541.424,538.1080000000002,0.0
53132.0,STARLINK-4063,PAYLOAD,2022-12-07 12:27:33,15.08833187,0.0002441,53.2188,108.0404,46.6405,313.4791,-6.9932e-06,-4e-06,0.0,0 STARLINK-4063,1 53132U 22083A   22341.51913301 -.00000400  00000-0 -69932-5 0  9994,2 53132  53.2188 108.0404 0002441  46.6405 313.4791 15.08833187 21843,6917.901,95.438,541.455,538.078,0.0
53132.0,STARLINK-4063,PAYLOAD,2022-12-07 15:38:19,15.08838484,0.000244,53.2189,107.446,48.9716,311.1487,4.3117000000000014e-06,-2.2e-06,0.0,0 STARLINK-4063,1 53132U 22083A   22341.65160935 -.00000220  00000-0  43117-5 0  9992,2 53132  53.2189 107.4460 0002440  48.9716 311.1487 15.08838484 22492,6917.885,95.438,541.438,538.062,0.0
53132.0,STARLINK-4063,PAYLOAD,2022-12-08 07:32:10,15.08838299,0.0002398,53.2179,104.4718,47.1604,312.9589,3.7567e-05,3.1e-06,0.0,0 STARLINK-4063,1 53132U 22083A   22342.31401017  .00000310  00000-0  37567-4 0  9995,2 53132  53.2179 104.4718 0002398  47.1604 312.9589 15.08838299 21960,6917.886,95.438,541.409,538.092,0.0
53132.0,STARLINK-4063,PAYLOAD,2022-12-08 15:29:05,15.08846839,0.0002377,53.2182,102.9837,50.8916,309.2287,0.00013371,1.841e-05,0.0,0 STARLINK-4063,1 53132U 22083A   22342.64519893  .00001841  00000-0  13371-3 0  9999,2 53132  53.2182 102.9837 0002377  50.8916 309.2287 15.08846839 22642,6917.859,95.437,541.369,538.08,0.0
53132.0,STARLINK-4063,PAYLOAD,2022-12-09 07:22:56,15.08846175,0.0002408,53.2201,100.0136,38.5056,321.6108,0.00023189,3.405e-05,0.0,0 STARLINK-4063,1 53132U 22083A   22343.30759515  .00003405  00000-0  23189-3 0  9996,2 53132  53.2201 100.0136 0002408  38.5056 321.6108 15.08846175 22113,6917.861999999999,95.437,541.3919999999998,538.061,0.0
53132.0,STARLINK-4063,PAYLOAD,2022-12-09 20:06:02,15.08833157,0.0001972,53.219,97.6315,47.5504,312.5655,-0.00011948,-2.189e-05,0.0,0 STARLINK-4063,1 53132U 22083A   22343.83753366 -.00002189  00000-0 -11948-3 0  9992,2 53132  53.2190  97.6315 0001972  47.5504 312.5655 15.08833157 22823,6917.901,95.438,541.131,538.4019999999998,0.0
53132.0,STARLINK-4063,PAYLOAD,2022-12-10 13:35:15,15.08883217,0.0002094,53.2197,94.3645,48.8863,311.231,-0.00023731,-4.068e-05,0.0,0 STARLINK-4063,1 53132U 22083A   22344.56614738 -.00004068  00000-0 -23731-3 0  9993,2 53132  53.2197  94.3645 0002094  48.8863 311.2310 15.08883217 22307,6917.748000000001,95.435,541.062,538.165,0.0
53132.0,STARLINK-4063,PAYLOAD,2022-12-10 15:10:39,15.08863851,0.000198,53.22,94.0676,45.6451,314.4703,-0.0004184,-6.945e-05,0.0,0 STARLINK-4063,1 53132U 22083A   22344.63240227 -.00006945  00000-0 -41840-3 0  9996,2 53132  53.2200  94.0676 0001980  45.6451 314.4703 15.08863851 22947,6917.807,95.436,541.0419999999998,538.303,0.0
53132.0,STARLINK-4063,PAYLOAD,2022-12-10 19:56:52,15.08793018,0.0001996,53.2198,93.1758,30.6713,329.4395,-0.00024895,-4.243e-05,0.0,0 STARLINK-4063,1 53132U 22083A   22344.83116260 -.00004243  00000-0 -24895-3 0  9997,2 53132  53.2198  93.1758 0001996  30.6713 329.4395 15.08793018 22979,6918.024,95.441,541.27,538.508,0.0
53132.0,STARLINK-4063,PAYLOAD,2022-12-11 13:26:03,15.08838642,0.0002134,53.2201,89.8985,37.182,322.9319,0.00020222,2.932e-05,0.0,0 STARLINK-4063,1 53132U 22083A   22345.55976334  .00002932  00000-0  20222-3 0  9994,2 53132  53.2201  89.8985 0002134  37.1820 322.9319 15.08838642 22454,6917.885,95.438,541.226,538.273,0.0
53132.0,STARLINK-4063,PAYLOAD,2022-12-11 16:36:50,15.08835212,0.0002544,53.2198,89.3057,30.45300000000001,329.661,0.00016683,2.367e-05,0.0,0 STARLINK-4063,1 53132U 22083A   22345.69224749  .00002367  00000-0  16683-3 0  9993,2 53132  53.2198  89.3057 0002544  30.4530 329.6610 15.08835212 23104,6917.895,95.438,541.52,538.0,0.0
53132.0,STARLINK-4063,PAYLOAD,2022-12-12 11:41:27,15.08840068,0.0002429,53.2192,85.7378,38.7431,321.3735,6.0681e-05,6.78e-06,0.0,0 STARLINK-4063,1 53132U 22083A   22346.48712918  .00000678  00000-0  60681-4 0  9992,2 53132  53.2192  85.7378 0002429  38.7431 321.3735 15.08840068 22591,6917.88,95.438,541.4259999999998,538.065,0.0
53132.0,STARLINK-4063,PAYLOAD,2022-12-12 18:03:00,15.08836593,0.0002841,53.2192,84.5488,32.4748,327.6419,3.4392e-08,-2.88e-06,0.0,0 STARLINK-4063,1 53132U 22083A   22346.75209356 -.00000288  00000-0  34392-7 0  9990,2 53132  53.2192  84.5488 0002841  32.4748 327.6419 15.08836593 23261,6917.891,95.438,541.721,537.79,0.0
53132.0,STARLINK-4063,PAYLOAD,2022-12-13 09:56:52,15.088494,0.0003016,53.2206,81.5737,26.6181,333.4965,-0.00017652,-3.098e-05,0.0,0 STARLINK-4063,1 53132U 22083A   22347.41449322 -.00003098  00000-0 -17652-3 0  9992,2 53132  53.2206  81.5737 0003016  26.6181 333.4965 15.08849400 22735,6917.852,95.437,541.803,537.63,0.0
53132.0,STARLINK-4063,PAYLOAD,2022-12-13 17:53:47,15.08841319,0.0002735,53.2196,80.0875,31.7221,328.3936,-5.5365e-05,-1.17e-05,0.0,0 STARLINK-4063,1 53132U 22083A   22347.74569256 -.00001170  00000-0 -55365-4 0  9990,2 53132  53.2196  80.0875 0002735  31.7221 328.3936 15.08841319 22786,6917.876,95.437,541.633,537.849,0.0
53132.0,STARLINK-4063,PAYLOAD,2022-12-14 06:36:52,15.08840071,0.0002348,53.2186,77.7084,35.2211,324.8936,1.9888e-05,2.8e-07,0.0,0 STARLINK-4063,1 53132U 22083A   22348.27561143  .00000028  00000-0  19888-4 0  9995,2 53132  53.2186  77.7084 0002348  35.2211 324.8936 15.08840071 23492,6917.88,95.438,541.369,538.121,0.0
